[{"OBJECT_NAME":"LAPAN-A3","OBJECT_ID":"2016-040E","EPOCH":"2026-03-09T23:01:57.724896","MEAN_MOTION":15.3238951,"ECCENTRICITY":0.00109839,"INCLINATION":97.1488,"RA_OF_ASC_NODE":68.4254,"ARG_OF_PERICENTER":22.062,"MEAN_ANOMALY":338.1093,"EPHEMERIS_TYPE":0,"CLASSIFICATION_TYPE":"U","NORAD_CAT_ID":41603,"ELEMENT_SET_NO":999,"REV_AT_EPOCH":53961,"BSTAR":0.00017567445,"MEAN_MOTION_DOT":5.428e-5,"MEAN_MOTION_DDOT":0},{"OBJECT_NAME":"STARLINK-34801","OBJECT_ID":"2025-235U","EPOCH":"2026-03-09T22:00:05.406336","MEAN_MOTION":15.30185572,"ECCENTRICITY":0.00010487,"INCLINATION":53.1567,"RA_OF_ASC_NODE":244.3977,"ARG_OF_PERICENTER":57.3217,"MEAN_ANOMALY":302.7885,"EPHEMERIS_TYPE":0,"CLASSIFICATION_TYPE":"U","NORAD_CAT_ID":66076,"ELEMENT_SET_NO":999,"REV_AT_EPOCH":2295,"BSTAR":0.0012371491,"MEAN_MOTION_DOT":0.00036445,"MEAN_MOTION_DDOT":0}]
